{
  "type": "FeatureCollection",
  "features": [
    {
      "type": "Feature",
      "properties": {
        "norad_id": 26766,
        "name": "INTELSAT 10 (IS-10)",
        "group": "intelsat",
        "lat": 0.023842796395609055,
        "lon": -119.17540557648708,
        "alt_km": 36103.795628633954,
        "timestamp": "2025-12-24T03:53:29.309762+00:00",
        "meta_object_name": "INTELSAT 10 (IS-10)",
        "meta_object_id": "2001-019A",
        "meta_epoch": "2025-12-23T20:29:28.496256",
        "meta_mean_motion": 0.9907274,
        "meta_eccentricity": 0.0007879,
        "meta_inclination": 8.6541,
        "meta_ra_of_asc_node": 61.0445,
        "meta_arg_of_pericenter": 229.3993,
        "meta_mean_anomaly": 200.4709,
        "meta_ephemeris_type": 0,
        "meta_classification_type": "U",
        "meta_norad_cat_id": 26766,
        "meta_element_set_no": 999,
        "meta_rev_at_epoch": 4384,
        "meta_bstar": 0,
        "meta_mean_motion_dot": -1.1e-07,
        "meta_mean_motion_ddot": 0,
        "tle_line1": "1 26766U 01019A   25357.85380204 -.00000011  00000+0  00000+0 0  9991",
        "tle_line2": "2 26766   8.6541  61.0445 0007879 229.3993 200.4709  0.99072740 43840"
      },
      "geometry": {
        "type": "Point",
        "coordinates": [
          -119.17540557648708,
          0.023842796395609055
        ]
      }
    },
    {
      "type": "Feature",
      "properties": {
        "norad_id": 26900,
        "name": "INTELSAT 902 (IS-902)",
        "group": "intelsat",
        "lat": 2.609902310448947,
        "lon": 100.99591849058801,
        "alt_km": 35805.144812654595,
        "timestamp": "2025-12-24T03:53:29.309786+00:00",
        "meta_object_name": "INTELSAT 902 (IS-902)",
        "meta_object_id": "2001-039A",
        "meta_epoch": "2025-12-15T13:09:02.081664",
        "meta_mean_motion": 1.0027087,
        "meta_eccentricity": 0.00045028,
        "meta_inclination": 5.6536,
        "meta_ra_of_asc_node": 74.0372,
        "meta_arg_of_pericenter": 189.6359,
        "meta_mean_anomaly": 327.9329,
        "meta_ephemeris_type": 0,
        "meta_classification_type": "U",
        "meta_norad_cat_id": 26900,
        "meta_element_set_no": 999,
        "meta_rev_at_epoch": 8885,
        "meta_bstar": 0,
        "meta_mean_motion_dot": -2.65e-06,
        "meta_mean_motion_ddot": 0,
        "tle_line1": "1 26900U 01039A   25349.54794076 -.00000265  00000+0  00000+0 0  9997",
        "tle_line2": "2 26900   5.6536  74.0372 0004502 189.6359 327.9329  1.00270870 88858"
      },
      "geometry": {
        "type": "Point",
        "coordinates": [
          100.99591849058801,
          2.609902310448947
        ]
      }
    },
    {
      "type": "Feature",
      "properties": {
        "norad_id": 27380,
        "name": "INTELSAT 904 (IS-904)",
        "group": "intelsat",
        "lat": 4.872805621270868,
        "lon": 119.64350626235458,
        "alt_km": 35792.60557919768,
        "timestamp": "2025-12-24T03:53:29.309803+00:00",
        "meta_object_name": "INTELSAT 904 (IS-904)",
        "meta_object_id": "2002-007A",
        "meta_epoch": "2025-12-23T11:16:19.538976",
        "meta_mean_motion": 1.00273546,
        "meta_eccentricity": 0.0001864,
        "meta_inclination": 6.4798,
        "meta_ra_of_asc_node": 71.3095,
        "meta_arg_of_pericenter": 244.0709,
        "meta_mean_anomaly": 274.4665,
        "meta_ephemeris_type": 0,
        "meta_classification_type": "U",
        "meta_norad_cat_id": 27380,
        "meta_element_set_no": 999,
        "meta_rev_at_epoch": 5000,
        "meta_bstar": 0,
        "meta_mean_motion_dot": -2.07e-06,
        "meta_mean_motion_ddot": 0,
        "tle_line1": "1 27380U 02007A   25357.46967059 -.00000207  00000+0  00000+0 0  9995",
        "tle_line2": "2 27380   6.4798  71.3095 0001864 244.0709 274.4665  1.00273546 50003"
      },
      "geometry": {
        "type": "Point",
        "coordinates": [
          119.64350626235458,
          4.872805621270868
        ]
      }
    },
    {
      "type": "Feature",
      "properties": {
        "norad_id": 27426,
        "name": "DIRECTV 5 (TEMPO 1)",
        "group": "intelsat",
        "lat": -2.6128554250192595,
        "lon": 41.30507588453399,
        "alt_km": 35793.6633909327,
        "timestamp": "2025-12-24T03:53:29.309815+00:00",
        "meta_object_name": "DIRECTV 5 (TEMPO 1)",
        "meta_object_id": "2002-023A",
        "meta_epoch": "2025-12-23T16:01:57.619200",
        "meta_mean_motion": 1.00271663,
        "meta_eccentricity": 0.0003261,
        "meta_inclination": 4.4282,
        "meta_ra_of_asc_node": 77.5248,
        "meta_arg_of_pericenter": 202.2662,
        "meta_mean_anomaly": 303.0349,
        "meta_ephemeris_type": 0,
        "meta_classification_type": "U",
        "meta_norad_cat_id": 27426,
        "meta_element_set_no": 999,
        "meta_rev_at_epoch": 8636,
        "meta_bstar": 0,
        "meta_mean_motion_dot": -3.8e-07,
        "meta_mean_motion_ddot": 0,
        "tle_line1": "1 27426U 02023A   25357.66802800 -.00000038  00000+0  00000+0 0  9990",
        "tle_line2": "2 27426   4.4282  77.5248 0003261 202.2662 303.0349  1.00271663 86369"
      },
      "geometry": {
        "type": "Point",
        "coordinates": [
          41.30507588453399,
          -2.6128554250192595
        ]
      }
    },
    {
      "type": "Feature",
      "properties": {
        "norad_id": 27438,
        "name": "INTELSAT 905 (IS-905)",
        "group": "intelsat",
        "lat": -5.341511843178593,
        "lon": 14.308176061279354,
        "alt_km": 35787.43878430831,
        "timestamp": "2025-12-24T03:53:29.309828+00:00",
        "meta_object_name": "INTELSAT 905 (IS-905)",
        "meta_object_id": "2002-027A",
        "meta_epoch": "2025-12-23T05:41:27.377952",
        "meta_mean_motion": 1.00273243,
        "meta_eccentricity": 0.00027491,
        "meta_inclination": 6.3102,
        "meta_ra_of_asc_node": 71.9349,
        "meta_arg_of_pericenter": 206.5226,
        "meta_mean_anomaly": 121.7385,
        "meta_ephemeris_type": 0,
        "meta_classification_type": "U",
        "meta_norad_cat_id": 27438,
        "meta_element_set_no": 999,
        "meta_rev_at_epoch": 4959,
        "meta_bstar": 0,
        "meta_mean_motion_dot": 1.12e-06,
        "meta_mean_motion_ddot": 0,
        "tle_line1": "1 27438U 02027A   25357.23712243  .00000112  00000+0  00000+0 0  9993",
        "tle_line2": "2 27438   6.3102  71.9349 0002749 206.5226 121.7385  1.00273243 49592"
      },
      "geometry": {
        "type": "Point",
        "coordinates": [
          14.308176061279354,
          -5.341511843178593
        ]
      }
    },
    {
      "type": "Feature",
      "properties": {
        "norad_id": 27445,
        "name": "GALAXY 3C (G-3C)",
        "group": "intelsat",
        "lat": -1.321083672145971,
        "lon": 56.475882248087146,
        "alt_km": 35787.71178258045,
        "timestamp": "2025-12-24T03:53:29.309845+00:00",
        "meta_object_name": "GALAXY 3C (G-3C)",
        "meta_object_id": "2002-030A",
        "meta_epoch": "2025-12-23T17:49:02.260992",
        "meta_mean_motion": 1.00271494,
        "meta_eccentricity": 0.0001101,
        "meta_inclination": 3.2896,
        "meta_ra_of_asc_node": 80.389,
        "meta_arg_of_pericenter": 83.2613,
        "meta_mean_anomaly": 101.281,
        "meta_ephemeris_type": 0,
        "meta_classification_type": "U",
        "meta_norad_cat_id": 27445,
        "meta_element_set_no": 999,
        "meta_rev_at_epoch": 4473,
        "meta_bstar": 0,
        "meta_mean_motion_dot": -1.33e-06,
        "meta_mean_motion_ddot": 0,
        "tle_line1": "1 27445U 02030A   25357.74238728 -.00000133  00000+0  00000+0 0  9996",
        "tle_line2": "2 27445   3.2896  80.3890 0001101  83.2613 101.2810  1.00271494 44735"
      },
      "geometry": {
        "type": "Point",
        "coordinates": [
          56.475882248087146,
          -1.321083672145971
        ]
      }
    },
    {
      "type": "Feature",
      "properties": {
        "norad_id": 27513,
        "name": "INTELSAT 906 (IS-906)",
        "group": "intelsat",
        "lat": 3.415559677760849,
        "lon": -144.47948637836646,
        "alt_km": 35772.53330704565,
        "timestamp": "2025-12-24T03:53:29.309872+00:00",
        "meta_object_name": "INTELSAT 906 (IS-906)",
        "meta_object_id": "2002-041A",
        "meta_epoch": "2025-12-23T18:34:28.015104",
        "meta_mean_motion": 1.00273398,
        "meta_eccentricity": 0.000629,
        "meta_inclination": 5.3577,
        "meta_ra_of_asc_node": 75.1001,
        "meta_arg_of_pericenter": 202.0184,
        "meta_mean_anomaly": 158.2022,
        "meta_ephemeris_type": 0,
        "meta_classification_type": "U",
        "meta_norad_cat_id": 27513,
        "meta_element_set_no": 999,
        "meta_rev_at_epoch": 8527,
        "meta_bstar": 0,
        "meta_mean_motion_dot": 3.1e-07,
        "meta_mean_motion_ddot": 0,
        "tle_line1": "1 27513U 02041A   25357.77393536  .00000031  00000+0  00000+0 0  9992",
        "tle_line2": "2 27513   5.3577  75.1001 0006290 202.0184 158.2022  1.00273398 85270"
      },
      "geometry": {
        "type": "Point",
        "coordinates": [
          -144.47948637836646,
          3.415559677760849
        ]
      }
    }
  ]
}